NORAD_CAT_ID,OBJECT_NAME,OBJECT_TYPE,EPOCH,MEAN_MOTION,ECCENTRICITY,INCLINATION,RA_OF_ASC_NODE,ARG_OF_PERICENTER,MEAN_ANOMALY,BSTAR,MEAN_MOTION_DOT,MEAN_MOTION_DDOT,TLE_LINE0,TLE_LINE1,TLE_LINE2,SEMIMAJOR_AXIS,PERIOD,APOGEE,PERIGEE,DECAYED
52472.0,STARLINK-3881,PAYLOAD,2023-08-27 11:08:23,15.08837968,0.0001575,53.2177,252.6215,102.1471,257.9698,5.0898e-05,5.22e-06,0.0,0 STARLINK-3881,1 52472U 22049X   23239.46416520  .00000522  00000-0  50898-4 0  9997,2 52472  53.2177 252.6215 0001575 102.1471 257.9698 15.08837968 72576,6917.887,95.438,540.841,538.662,0.0
52472.0,STARLINK-3881,PAYLOAD,2023-08-28 07:48:25,15.08834508,0.0001553,53.2178,248.7559,104.671,255.4454,4.1127e-05,3.67e-06,0.0,0 STARLINK-3881,1 52472U 22049X   23240.32528962  .00000367  00000-0  41127-4 0  9990,2 52472  53.2178 248.7559 0001553 104.6710 255.4454 15.08834508 72865,6917.897,95.438,540.837,538.688,0.0
52472.0,STARLINK-3881,PAYLOAD,2023-08-28 17:20:43,15.08837637,0.0001329,53.2168,246.9699,95.2055,264.9089,2.6275e-05,1.3e-06,0.0,0 STARLINK-3881,1 52472U 22049X   23240.72272873  .00000130  00000-0  26275-4 0  9996,2 52472  53.2168 246.9699 0001329  95.2055 264.9089 15.08837637 72761,6917.888,95.438,540.672,538.833,0.0
52472.0,STARLINK-3881,PAYLOAD,2023-08-29 09:14:35,15.08839852,0.0001388,53.2168,243.9961,96.132,263.983,7.1419e-05,8.49e-06,0.0,0 STARLINK-3881,1 52472U 22049X   23241.38512787  .00000849  00000-0  71419-4 0  9997,2 52472  53.2168 243.9961 0001388  96.1320 263.9830 15.08839852 73024,6917.881,95.438,540.706,538.786,0.0
52472.0,STARLINK-3881,PAYLOAD,2023-08-30 12:16:08,15.08840717,0.0001347,53.2167,238.9404,89.8855,270.2291,7.9831e-05,9.83e-06,0.0,0 STARLINK-3881,1 52472U 22049X   23242.51120927  .00000983  00000-0  79831-4 0  9999,2 52472  53.2167 238.9404 0001347  89.8855 270.2291 15.08840717 73198,6917.878,95.438,540.675,538.811,0.0
52472.0,STARLINK-3881,PAYLOAD,2023-08-30 17:02:18,15.08838454,0.0001341,53.2168,238.0485,95.7495,264.365,4.3122e-05,3.98e-06,0.0,0 STARLINK-3881,1 52472U 22049X   23242.70993175  .00000398  00000-0  43122-4 0  9997,2 52472  53.2168 238.0485 0001341  95.7495 264.3650 15.08838454 73063,6917.885,95.438,540.678,538.822,0.0
52472.0,STARLINK-3881,PAYLOAD,2023-08-31 08:56:09,15.08844312,0.0001393,53.2167,235.0751,89.2361,270.8791,7.4589e-05,8.99e-06,0.0,0 STARLINK-3881,1 52472U 22049X   23243.37232782  .00000899  00000-0  74589-4 0  9998,2 52472  53.2167 235.0751 0001393  89.2361 270.8791 15.08844312 73161,6917.867,95.437,540.696,538.769,0.0
52472.0,STARLINK-3881,PAYLOAD,2023-08-31 23:14:37,15.0884019,0.0001392,53.2163,232.3994,88.79,271.3251,7.4912e-05,9.04e-06,0.0,0 STARLINK-3881,1 52472U 22049X   23243.96848992  .00000904  00000-0  74912-4 0  9996,2 52472  53.2163 232.3994 0001392  88.7900 271.3251 15.08840190 73413,6917.88,95.438,540.708,538.782,0.0
52472.0,STARLINK-3881,PAYLOAD,2023-09-01 10:22:19,15.08845533,0.0001389,53.2162,230.3181,88.7667,271.3485,8.5837e-05,1.079e-05,0.0,0 STARLINK-3881,1 52472U 22049X   23244.43216654  .00001079  00000-0  85837-4 0  9995,2 52472  53.2162 230.3181 0001389  88.7667 271.3485 15.08845533 73329,6917.863,95.437,540.689,538.768,0.0
52472.0,STARLINK-3881,PAYLOAD,2023-09-01 16:43:52,15.08840069,0.000133,53.2159,229.1294,92.8467,267.2677,1.7717e-05,-6e-08,0.0,0 STARLINK-3881,1 52472U 22049X   23244.69713103 -.00000006  00000-0  17717-4 0  9996,2 52472  53.2159 229.1294 0001330  92.8467 267.2677 15.08840069 73366,6917.88,95.438,540.665,538.825,0.0
52472.0,STARLINK-3881,PAYLOAD,2023-09-02 05:26:57,15.08838249,9.89e-05,53.22,226.7504,82.407,277.7034,6.7132e-05,7.81e-06,0.0,0 STARLINK-3881,1 52472U 22049X   23245.22705071  .00000781  00000-0  67132-4 0  9996,2 52472  53.2200 226.7504 0000989  82.4070 277.7034 15.08838249 73601,6917.886,95.438,540.435,539.067,0.0
52472.0,STARLINK-3881,PAYLOAD,2023-09-02 10:13:06,15.08845642,0.0001455,53.2157,225.8574,84.6458,275.47,5.8778e-05,6.48e-06,0.0,0 STARLINK-3881,1 52472U 22049X   23245.42576607  .00000648  00000-0  58778-4 0  9997,2 52472  53.2157 225.8574 0001455  84.6458 275.4700 15.08845642 73477,6917.863,95.437,540.735,538.722,0.0
52472.0,STARLINK-3881,PAYLOAD,2023-09-03 10:03:52,15.08851085,0.000139,53.2168,221.3963,90.2865,269.8287,9.8611e-05,1.282e-05,0.0,0 STARLINK-3881,1 52472U 22049X   23246.41936019  .00001282  00000-0  98611-4 0  9999,2 52472  53.2168 221.3963 0001390  90.2865 269.8287 15.08851085 73627,6917.847,95.437,540.673,538.75,0.0
52472.0,STARLINK-3881,PAYLOAD,2023-09-04 00:22:22,15.08829157,0.0001354,53.2167,218.7198,96.8619,263.2527,-4.9628e-05,-1.077e-05,0.0,0 STARLINK-3881,1 52472U 22049X   23247.01553998 -.00001077  00000-0 -49628-4 0  9995,2 52472  53.2167 218.7198 0001354  96.8619 263.2527 15.08829157 73872,6917.914,95.438,540.715,538.842,0.0
52472.0,STARLINK-3881,PAYLOAD,2023-09-04 08:19:17,15.08835426,0.0001438,53.2167,217.2332,95.4073,264.7083,2.546e-05,1.17e-06,0.0,0 STARLINK-3881,1 52472U 22049X   23247.34673588  .00000117  00000-0  25460-4 0  9999,2 52472  53.2167 217.2332 0001438  95.4073 264.7083 15.08835426 73923,6917.894,95.438,540.754,538.765,0.0
52472.0,STARLINK-3881,PAYLOAD,2023-09-05 04:59:18,15.08840072,0.0001324,53.2171,213.3678,100.645,259.4691,1.6365e-05,-2.7e-07,0.0,0 STARLINK-3881,1 52472U 22049X   23248.20785693 -.00000027  00000-0  16365-4 0  9991,2 52472  53.2171 213.3678 0001324 100.6450 259.4691 15.08840072 73895,6917.88,95.438,540.661,538.829,0.0
52472.0,STARLINK-3881,PAYLOAD,2023-09-06 09:36:15,15.08839964,0.0001322,53.2173,208.0153,105.8506,254.2632,0.00013838,1.915e-05,0.0,0 STARLINK-3881,1 52472U 22049X   23249.40017822  .00001915  00000-0  13838-3 0  9993,2 52472  53.2173 208.0153 0001322 105.8506 254.2632 15.08839964 74238,6917.88,95.438,540.66,538.831,0.0
52472.0,STARLINK-3881,PAYLOAD,2023-09-06 20:43:57,15.08837462,0.0001313,53.2171,205.934,105.4829,254.6308,0.00011852,1.599e-05,0.0,0 STARLINK-3881,1 52472U 22049X   23249.86386162  .00001599  00000-0  11852-3 0  9991,2 52472  53.2171 205.9340 0001313 105.4829 254.6308 15.08837462 74149,6917.888,95.438,540.661,538.845,0.0
52472.0,STARLINK-3881,PAYLOAD,2023-09-07 06:16:16,15.08842519,0.0001258,53.2172,204.1495,102.0924,258.0209,9.4825e-05,1.222e-05,0.0,0 STARLINK-3881,1 52472U 22049X   23250.26129935  .00001222  00000-0  94825-4 0  9995,2 52472  53.2172 204.1495 0001258 102.0924 258.0209 15.08842519 74203,6917.873,95.437,540.608,538.867,0.0
52472.0,STARLINK-3881,PAYLOAD,2023-09-08 02:56:17,15.08841818,0.0001397,53.217,200.2852,88.3558,271.7594,9.6627e-05,1.25e-05,0.0,0 STARLINK-3881,1 52472U 22049X   23251.12242050  .00001250  00000-0  96627-4 0  9998,2 52472  53.2170 200.2852 0001397  88.3558 271.7594 15.08841818 74499,6917.875,95.437,540.706,538.773,0.0
52472.0,STARLINK-3881,PAYLOAD,2023-09-08 04:31:40,15.08843324,0.0001412,53.2165,199.9881,84.8901,275.2252,0.0001067,1.411e-05,0.0,0 STARLINK-3881,1 52472U 22049X   23251.18865948  .00001411  00000-0  10670-3 0  9993,2 52472  53.2165 199.9881 0001412  84.8901 275.2252 15.08843324 74348,6917.87,95.437,540.712,538.758,0.0
52472.0,STARLINK-3881,PAYLOAD,2023-09-08 20:25:31,15.08843772,0.0001422,53.2166,197.0145,85.0196,275.0958,9.5045e-05,1.225e-05,0.0,0 STARLINK-3881,1 52472U 22049X   23251.85105919  .00001225  00000-0  95045-4 0  9995,2 52472  53.2166 197.0145 0001422  85.0196 275.0958 15.08843772 74440,6917.869,95.437,540.718,538.75,0.0
52472.0,STARLINK-3881,PAYLOAD,2023-09-09 05:57:49,15.08850594,0.0001426,53.2168,195.2296,87.6953,272.4202,0.00014921,2.088e-05,0.0,0 STARLINK-3881,1 52472U 22049X   23252.24849256  .00002088  00000-0  14921-3 0  9999,2 52472  53.2168 195.2296 0001426  87.6953 272.4202 15.08850594 74669,6917.848,95.437,540.699,538.727,0.0
52472.0,STARLINK-3881,PAYLOAD,2023-09-09 13:54:45,15.088421,0.0001355,53.2175,193.741,95.9489,264.1658,9.6728e-05,1.252e-05,0.0,0 STARLINK-3881,1 52472U 22049X   23252.57969898  .00001252  00000-0  96728-4 0  9998,2 52472  53.2175 193.7410 0001355  95.9489 264.1658 15.08842100 74550,6917.874,95.437,540.676,538.802,0.0
52472.0,STARLINK-3881,PAYLOAD,2023-09-10 05:48:37,15.08848147,0.0001431,53.2177,190.769,89.6486,270.467,0.0001037,1.363e-05,0.0,0 STARLINK-3881,1 52472U 22049X   23253.24209614  .00001363  00000-0  10370-3 0  9997,2 52472  53.2177 190.7690 0001431  89.6486 270.4670 15.08848147 74653,6917.855,95.437,540.71,538.731,0.0
52472.0,STARLINK-3881,PAYLOAD,2023-09-11 02:28:38,15.08842863,0.0001466,53.2181,186.9021,101.2429,258.8728,7.6636e-06,-1.66e-06,0.0,0 STARLINK-3881,1 52472U 22049X   23254.10322196 -.00000166  00000-0  76636-5 0  9994,2 52472  53.2181 186.9021 0001466 101.2429 258.8728 15.08842863 74944,6917.872,95.437,540.751,538.722,0.0
52472.0,STARLINK-3881,PAYLOAD,2023-09-11 12:00:57,15.08841193,0.0001545,53.2181,185.1185,93.2316,266.8852,6.4826e-05,7.44e-06,0.0,0 STARLINK-3881,1 52472U 22049X   23254.50066300  .00000744  00000-0  64826-4 0  9998,2 52472  53.2181 185.1185 0001545  93.2316 266.8852 15.08841193 74840,6917.877,95.437,540.811,538.673,0.0
52472.0,STARLINK-3881,PAYLOAD,2023-09-12 02:19:25,15.08846947,0.0001524,53.2173,182.4433,96.8672,263.2493,0.00020037,2.903e-05,0.0,0 STARLINK-3881,1 52472U 22049X   23255.09682022  .00002903  00000-0  20037-3 0  9992,2 52472  53.2173 182.4433 0001524  96.8672 263.2493 15.08846947 74932,6917.859,95.437,540.778,538.67,0.0
52472.0,STARLINK-3881,PAYLOAD,2023-09-13 00:34:49,15.08837437,0.0001462,53.2173,178.2804,99.0361,261.0796,7.8232e-05,9.57e-06,0.0,0 STARLINK-3881,1 52472U 22049X   23256.02418854  .00000957  00000-0  78232-4 0  9994,2 52472  53.2173 178.2804 0001462  99.0361 261.0796 15.08837437 75238,6917.888,95.438,540.765,538.742,0.0
52472.0,STARLINK-3881,PAYLOAD,2023-09-13 05:20:59,15.08845351,0.0001405,53.2171,177.3872,98.2624,261.8527,0.00019533,2.823e-05,0.0,0 STARLINK-3881,1 52472U 22049X   23256.22290514  .00002823  00000-0  19533-3 0  9999,2 52472  53.2171 177.3872 0001405  98.2624 261.8527 15.08845351 75101,6917.864,95.437,540.701,538.757,0.0
